[{"OBJECT_NAME":"ONEWEB-0290","OBJECT_ID":"2021-075F","EPOCH":"2026-03-09T22:19:04.093536","MEAN_MOTION":13.17650403,"ECCENTRICITY":0.00023815,"INCLINATION":87.9158,"RA_OF_ASC_NODE":25.5567,"ARG_OF_PERICENTER":88.4079,"MEAN_ANOMALY":271.7325,"EPHEMERIS_TYPE":0,"CLASSIFICATION_TYPE":"U","NORAD_CAT_ID":49080,"ELEMENT_SET_NO":999,"REV_AT_EPOCH":22054,"BSTAR":0.00022685575,"MEAN_MOTION_DOT":1.01e-6,"MEAN_MOTION_DDOT":0},{"OBJECT_NAME":"SL-14 DEB","OBJECT_ID":"1991-056DD","EPOCH":"2026-02-22T02:50:15.122976","MEAN_MOTION":13.24730307,"ECCENTRICITY":0.0033433,"INCLINATION":82.5458,"RA_OF_ASC_NODE":201.7449,"ARG_OF_PERICENTER":282.2949,"MEAN_ANOMALY":77.4435,"EPHEMERIS_TYPE":0,"CLASSIFICATION_TYPE":"U","NORAD_CAT_ID":47079,"ELEMENT_SET_NO":999,"REV_AT_EPOCH":25649,"BSTAR":0.0013771,"MEAN_MOTION_DOT":6.08e-6,"MEAN_MOTION_DDOT":0}]
